satname,norad_id,inclination_deg,eccentricity,mean_motion_rev_per_day,perigee_km,apogee_km,l1,l2
STARLINK-1143,45179,53.0478,0.0006869,15.6083691,380.59258726330154,389.8841123188449,1 45179U 20012B   26060.91668981  .00158625  00000+0  18342-2 0  9999,2 45179  53.0478   7.8755 0006869  70.3382  96.2165 15.60836910  5978
STARLINK-1202,45183,53.1612,0.0001094,15.30211787,474.4301229216444,475.9296286540666,1 45183U 20012F   26060.32821008 -.00001414  00000+0 -35614-4 0  9998,2 45183  53.1612  78.0895 0001094  96.9697 263.1428 15.30211787333671
STARLINK-1216,45185,53.1607,0.0001396,15.30201807,474.2529468526491,476.1664012440442,1 45185U 20012H   26060.31872807  .00001595  00000+0  65964-4 0  9991,2 45185  53.1607  78.1124 0001396  85.9200 274.1961 15.30201807333616
STARLINK-1225,45187,53.1595,0.0001329,15.30197489,474.3117553365346,476.1333783093969,1 45187U 20012K   26060.44627084  .00000858  00000+0  41081-4 0  9997,2 45187  53.1595  77.9565 0001329  93.9831 266.1322 15.30197489333673
STARLINK-1230,45189,53.1613,0.0001437,15.3019259,474.2523645612073,476.2220243046868,1 45189U 20012M   26060.32513338 -.00000203  00000+0  52834-5 0  9996,2 45189  53.1613  78.5841 0001437  87.1982 272.9183 15.30192590330880
STARLINK-1234,45190,53.0454,0.0003663,15.60235305,384.49875244059604,389.45487482046246,1 45190U 20012N   26060.91668981  .00105894  00000+0  12641-2 0  9998,2 45190  53.0454   3.2409 0003663 301.7566 117.5561 15.60235305  5984
STARLINK-1269,45197,53.1605,0.0001667,15.30182152,474.12589817453227,476.41082352184003,1 45197U 20012V   26060.32196558 -.00001631  00000+0 -42957-4 0  9997,2 45197  53.1605  78.4567 0001667  83.9233 276.1957 15.30182152333636
STARLINK-1154,45198,53.0493,0.0007185,15.44440553,428.1285745891282,437.9162106363128,1 45198U 20012W   26060.34254369  .00089767  00000+0  18953-2 0  9996,2 45198  53.0493  49.7753 0007185  52.3929 307.7728 15.44440553334008
STARLINK-1199,45201,53.1564,0.0001339,15.29349851,476.8366330171557,478.6726407975202,1 45201U 20012Z   26060.28655479 -.00002856  00000+0 -86684-4 0  9995,2 45201  53.1564  62.8235 0001339  86.2227 273.8926 15.29349851333875
STARLINK-1209,45206,53.0478,0.0005797,15.49425942,414.46432918915343,422.34423915402203,1 45206U 20012AE  26060.91668981  .00089897  00000+0  15983-2 0  9992,2 45206  53.0478  10.7575 0005797 258.5187 338.7899 15.49425942  5945
STARLINK-1210,45207,53.0028,0.0005557,16.21109437,212.87669693578846,220.20602246476028,1 45207U 20012AF  26060.57184597  .01709835  11840-4  78800-3 0  9990,2 45207  53.0028 300.5808 0005557 229.5498 130.5055 16.21109437335614
STARLINK-1231,45212,53.0508,0.0004385,15.20206349,502.19930605175796,508.23600808600713,1 45212U 20012AL  26060.39872900  .00047994  00000+0  21873-2 0  9996,2 45212  53.0508  53.8419 0004385  47.6303 312.5062 15.20206349333965
STARLINK-1271,45217,53.1553,0.0001041,15.29343658,477.0594450402941,478.48684553254316,1 45217U 20012AR  26060.91668981  .00071538  00000+0  24686-2 0  9997,2 45217  53.1553  60.0592 0001041  95.0421 127.6117 15.29343658  5839
STARLINK-1191,45222,53.1578,0.0001324,15.30195601,474.32081851884595,476.13558962488514,1 45222U 20012AW  26060.37450138  .00012026  00000+0  41756-3 0  9991,2 45222  53.1578  37.4484 0001324  92.6297 267.4855 15.30195601334245
STARLINK-1212,45223,53.0502,0.0005856,15.50297534,411.87809601736353,419.83522139043725,1 45223U 20012AX  26060.79740034  .00125141  00000+0  21449-2 0  9994,2 45223  53.0502  28.0270 0005856  75.7705 284.3953 15.50297534334417
STARLINK-1215,45225,53.1621,0.000128,15.30203969,474.3259911783589,476.08044627435174,1 45225U 20012AZ  26060.23009291 -.00000369  00000+0 -32036-6 0  9992,2 45225  53.1621  37.5993 0001280 102.6674 257.4470 15.30203969334187
STARLINK-1221,45227,53.0671,0.000289,15.4156022,439.5330978384809,443.4748503214996,1 45227U 20012BB  26060.09540621  .00019341  00000+0  46182-3 0  9997,2 45227  53.0671 310.3295 0002890  32.8312 327.2871 15.41560220335383
STARLINK-1222,45228,53.0572,0.0003948,15.48942875,417.13346462162644,422.50112933452056,1 45228U 20012BC  26060.29881980  .00031359  00000+0  57683-3 0  9997,2 45228  53.0572  23.0224 0003948  59.9467 300.1931 15.48942875334327
STARLINK-1226,45229,53.1597,0.0001594,15.30181583,474.17762672784283,476.36249289851094,1 45229U 20012BD  26060.91668981  .00048119  00000+0  16272-2 0  9991,2 45229  53.1597  34.7214 0001594  95.2444 286.3624 15.30181583  5755
STARLINK-1227,45230,53.1599,0.0001338,15.31041521,471.78694786520464,473.6202328071777,1 45230U 20012BE  26060.22049952  .00001994  00000+0  77493-4 0  9992,2 45230  53.1599  38.2567 0001338 107.5599 252.5548 15.31041521334239
STARLINK-1246,45235,53.1589,0.0001225,15.30219688,474.31675680294666,475.9958136578289,1 45235U 20012BK  26060.33138317  .00010913  00000+0  37981-3 0  9991,2 45235  53.1589  78.0733 0001225  92.1094 268.0047 15.30219688333699
STARLINK-1270,45237,53.0507,0.0004096,15.45362674,427.5238938183902,433.10137575921,1 45237U 20012BM  26060.30872832  .00094157  00000+0  19262-2 0  9990,2 45237  53.0507  27.5422 0004096  51.7244 308.4130 15.45362674334379
STARLINK-1279,45360,53.0437,0.0001281,15.55861479,398.7813373333138,400.5178062530067,1 45360U 20019A   26060.91668981  .00075364  00000+0  10664-2 0  9995,2 45360  53.0437 136.3611 0001281 155.6401 140.5949 15.55861479  5803
STARLINK-1301,45361,53.0425,0.0002528,15.63226268,376.63677105259467,380.05284825555646,1 45361U 20019B   26060.91668981  .00092876  00000+0  99006-3 0  9991,2 45361  53.0425 142.1800 0002528 180.4937 109.6116 15.63226268  5971
STARLINK-1262,45366,53.1151,0.0001381,15.20324374,503.91086713381173,505.81195129443677,1 45366U 20019G   26060.91668981  .00873741  00000+0  36864-1 0  9995,2 45366  53.1151 200.9310 0001381 110.5795 142.0275 15.20324374  5825
STARLINK-1273,45367,53.0521,6.55e-05,15.43328631,435.8471454403307,436.7398358346045,1 45367U 20019H   26060.63595632  .00026403  00000+0  59054-3 0  9990,2 45367  53.0521 193.0927 0000655 310.6736  49.4212 15.43328631328658
STARLINK-1276,45368,53.0555,0.0001159,15.06408747,546.3821049819971,547.9873945635945,1 45368U 20019J   26060.78939954  .00003110  00000+0  22754-3 0  9993,2 45368  53.0555 202.0834 0001159  83.9644 276.1477 15.06408747328548
STARLINK-1277,45369,53.0519,0.0001804,15.47256349,423.5290533902835,425.9835372912421,1 45369U 20019K   26060.62428951  .00085255  00000+0  16371-2 0  9994,2 45369  53.0519 191.1999 0001804 351.7190   8.3786 15.47256349328685
STARLINK-1281,45370,53.1109,0.0001622,15.19550528,506.0812325097995,508.31483519478115,1 45370U 20019L   26060.91668981  .01145688  00000+0  49007-1 0  9996,2 45370  53.1109 201.1257 0001622 112.2343 133.1986 15.19550528  5833
STARLINK-1300,45374,53.1148,0.0001692,15.20220119,504.01143461115316,506.3407477612109,1 45374U 20019Q   26060.91668981  .01864948  00000+0  77095-1 0  9995,2 45374  53.1148 201.1573 0001692  82.9227  24.6675 15.20220119  5675
STARLINK-1302,45375,53.0524,0.0002059,15.47919743,421.41215769903647,424.2127886920989,1 45375U 20019R   26060.58639260  .00058290  00000+0  11003-2 0  9999,2 45375  53.0524 190.6974 0002059 262.2730  97.8043 15.47919743328687
STARLINK-1304,45376,53.0501,0.0001774,15.46659681,425.2986457314819,427.71293299314766,1 45376U 20019S   26060.63690463  .00092167  00000+0  18044-2 0  9991,2 45376  53.0501 187.9917 0001774 243.7426 116.3398 15.46659681328724
STARLINK-1305,45377,53.0462,0.0003204,15.5123068,410.95583573155,415.30768075183187,1 45377U 20019T   26060.59693620  .00094341  00000+0  15729-2 0  9998,2 45377  53.0462 171.2208 0003204 113.3404 246.7942 15.51230680328967
STARLINK-1319,45379,53.0453,0.0001454,15.60550275,385.0829872447639,387.05001762327265,1 45379U 20019V   26060.91668981  .01166425  00000+0  12487-1 0  9999,2 45379  53.0453 167.8214 0001454  84.6128 143.6290 15.60550275  5963
STARLINK-1266,45383,53.0516,0.000259,15.44023215,432.4852663566571,436.014082654051,1 45383U 20019Z   26060.70086904  .00084893  00000+0  18208-2 0  9995,2 45383  53.0516 170.9934 0002590 339.9312  20.1591 15.44023215328967
STARLINK-1267,45384,53.052,0.0003966,15.48298254,419.00719665420365,424.40083054619026,1 45384U 20019AA  26060.91668981  .00021805  00000+0  41321-3 0  9997,2 45384  53.0520 164.2431 0003966 220.9882   0.0356 15.48298254  5880
STARLINK-1272,45386,53.0453,0.0001801,15.54682075,401.85565896071876,404.29825222752334,1 45386U 20019AC  26060.91668981  .00065604  00000+0  97150-3 0  9995,2 45386  53.0453 147.3970 0001801 134.8605 352.0910 15.54682075  5969
STARLINK-1274,45387,53.028,0.0005012,15.45721524,425.84697459928793,432.6707081907025,1 45387U 20019AD  26060.44916295  .00042944  00000+0  87815-3 0  9997,2 45387  53.0280 142.2769 0005012 206.8460 153.2287 15.45721524329347
STARLINK-1280,45388,53.0434,0.0001339,15.64459478,373.88952295320723,375.69795780548066,1 45388U 20019AE  26060.91668981  .00019561  00000+0  20485-3 0  9995,2 45388  53.0434 160.6381 0001339 117.5511 203.9997 15.64459478  5873
STARLINK-1283,45389,53.0445,0.000493,15.54554484,400.1046772736254,406.7913200823223,1 45389U 20019AF  26060.91668981  .00070609  00000+0  10489-2 0  9998,2 45389  53.0445 147.6038 0004930 209.5108 347.6431 15.54554484  5954
STARLINK-1284,45390,53.0494,0.0002113,15.50241114,414.5858939501213,417.45710533206966,1 45390U 20019AG  26060.91668981  .00055387  00000+0  96457-3 0  9996,2 45390  53.0494 168.3447 0002113 345.2016 211.9190 15.50241114  5898
STARLINK-1297,45395,53.0491,0.0002864,15.52401913,407.77143763748427,411.65951953721924,1 45395U 20019AM  26060.83944903  .00105132  00000+0  16778-2 0  9994,2 45395  53.0491 168.5564 0002864 348.7981  11.2964 15.52401913328192
STARLINK-1307,45397,53.0557,0.000124,15.49524397,417.2736494197288,418.95912025916914,1 45397U 20019AP  26060.62173714  .00030403  00000+0  54838-3 0  9995,2 45397  53.0557 169.4409 0001240  36.5359 323.5733 15.49524397328802
